CTC2_L_00436001-01
1 32410U 22148XV  26037.47795139  .00000000  00000+0  00000-0 0  9999
2 32410  60.0000   0.0000 0000000   0.0000   0.0000 12.41559219    18
CTC2_L_00436001-02
1 32411U 23847MV  26037.47795139  .00000000  00000+0  00000-0 0  9997
2 32411  60.0000   0.0000 0000000   0.0000  90.0000 12.41559219    18
CTC2_L_00436001-03
1 32412U 26282WT  26037.47795139  .00000000  00000+0  00000-0 0  9994
2 32412  60.0000   0.0000 0000000   0.0000 180.0000 12.41559219    19
CTC2_L_00436001-04
1 32413U 26117WA  26037.47795139  .00000000  00000+0  00000-0 0  9992
2 32413  60.0000   0.0000 0000000   0.0000 270.0000 12.41559219    10
CTC2_L_00436002-01
1 32414U 24781CZ  26037.47795139  .00000000  00000+0  00000-0 0  9998
2 32414  60.0000  12.0000 0000000   0.0000  12.0000 12.41559219    18
CTC2_L_00436002-02
1 32415U 24639MJ  26037.47795139  .00000000  00000+0  00000-0 0  9991
2 32415  60.0000  12.0000 0000000   0.0000 102.0000 12.41559219    19
CTC2_L_00436002-03
1 32416U 24647YA  26037.47795139  .00000000  00000+0  00000-0 0  9991
2 32416  60.0000  12.0000 0000000   0.0000 192.0000 12.41559219    19
CTC2_L_00436002-04
1 32417U 23820WY  26037.47795139  .00000000  00000+0  00000-0 0  9994
2 32417  60.0000  12.0000 0000000   0.0000 282.0000 12.41559219    10
CTC2_L_00436003-01
1 32418U 26060LU  26037.47795139  .00000000  00000+0  00000-0 0  9994
2 32418  60.0000  24.0000 0000000   0.0000  24.0000 12.41559219    18
CTC2_L_00436003-02
1 32419U 26457XA  26037.47795139  .00000000  00000+0  00000-0 0  9995
2 32419  60.0000  24.0000 0000000   0.0000 114.0000 12.41559219    19
CTC2_L_00436003-03
1 32420U 23831AV  26037.47795139  .00000000  00000+0  00000-0 0  9990
2 32420  60.0000  24.0000 0000000   0.0000 204.0000 12.41559219    11
CTC2_L_00436003-04
1 32421U 23760DL  26037.47795139  .00000000  00000+0  00000-0 0  9992
2 32421  60.0000  24.0000 0000000   0.0000 294.0000 12.41559219    11
CTC2_L_00436004-01
1 32422U 22376GG  26037.47795139  .00000000  00000+0  00000-0 0  9995
2 32422  60.0000  36.0000 0000000   0.0000  36.0000 12.41559219    19
CTC2_L_00436004-02
1 32423U 24748YT  26037.47795139  .00000000  00000+0  00000-0 0  9991
2 32423  60.0000  36.0000 0000000   0.0000 126.0000 12.41559219    10
CTC2_L_00436004-03
1 32424U 22288IZ  26037.47795139  .00000000  00000+0  00000-0 0  9999
2 32424  60.0000  36.0000 0000000   0.0000 216.0000 12.41559219    11
CTC2_L_00436004-04
1 32425U 25136CQ  26037.47795139  .00000000  00000+0  00000-0 0  9995
2 32425  60.0000  36.0000 0000000   0.0000 306.0000 12.41559219    12
CTC2_L_00436005-01
1 32426U 26506HE  26037.47795139  .00000000  00000+0  00000-0 0  9998
2 32426  60.0000  48.0000 0000000   0.0000  48.0000 12.41559219    19
CTC2_L_00436005-02
1 32427U 23995BA  26037.47795139  .00000000  00000+0  00000-0 0  9998
2 32427  60.0000  48.0000 0000000   0.0000 138.0000 12.41559219    10
CTC2_L_00436005-03
1 32428U 23916BX  26037.47795139  .00000000  00000+0  00000-0 0  9992
2 32428  60.0000  48.0000 0000000   0.0000 228.0000 12.41559219    11
CTC2_L_00436005-04
1 32429U 23507VD  26037.47795139  .00000000  00000+0  00000-0 0  9999
2 32429  60.0000  48.0000 0000000   0.0000 318.0000 12.41559219    12
CTC2_L_00436006-01
1 32430U 24741MN  26037.47795139  .00000000  00000+0  00000-0 0  9992
2 32430  60.0000  60.0000 0000000   0.0000  60.0000 12.41559219    12
CTC2_L_00436006-02
1 32431U 26064DE  26037.47795139  .00000000  00000+0  00000-0 0  9993
2 32431  60.0000  60.0000 0000000   0.0000 150.0000 12.41559219    13
CTC2_L_00436006-03
1 32432U 23214NE  26037.47795139  .00000000  00000+0  00000-0 0  9998
2 32432  60.0000  60.0000 0000000   0.0000 240.0000 12.41559219    14
CTC2_L_00436006-04
1 32433U 24433XY  26037.47795139  .00000000  00000+0  00000-0 0  9993
2 32433  60.0000  60.0000 0000000   0.0000 330.0000 12.41559219    15
CTC2_L_00436007-01
1 32434U 22247HE  26037.47795139  .00000000  00000+0  00000-0 0  9995
2 32434  60.0000  72.0000 0000000   0.0000  72.0000 12.41559219    12
CTC2_L_00436007-02
1 32435U 23047QZ  26037.47795139  .00000000  00000+0  00000-0 0  9995
2 32435  60.0000  72.0000 0000000   0.0000 162.0000 12.41559219    13
CTC2_L_00436007-03
1 32436U 23238BO  26037.47795139  .00000000  00000+0  00000-0 0  9998
2 32436  60.0000  72.0000 0000000   0.0000 252.0000 12.41559219    14
CTC2_L_00436007-04
1 32437U 26587MA  26037.47795139  .00000000  00000+0  00000-0 0  9999
2 32437  60.0000  72.0000 0000000   0.0000 342.0000 12.41559219    15
CTC2_L_00436008-01
1 32438U 23475ZS  26037.47795139  .00000000  00000+0  00000-0 0  9993
2 32438  60.0000  84.0000 0000000   0.0000  84.0000 12.41559219    12
CTC2_L_00436008-02
1 32439U 26075GA  26037.47795139  .00000000  00000+0  00000-0 0  9993
2 32439  60.0000  84.0000 0000000   0.0000 174.0000 12.41559219    13
CTC2_L_00436008-03
1 32440U 22157MF  26037.47795139  .00000000  00000+0  00000-0 0  9992
2 32440  60.0000  84.0000 0000000   0.0000 264.0000 12.41559219    15
CTC2_L_00436008-04
1 32441U 25674DM  26037.47795139  .00000000  00000+0  00000-0 0  9990
2 32441  60.0000  84.0000 0000000   0.0000 354.0000 12.41559219    16
CTC2_L_00436009-01
1 32442U 22375KP  26037.47795139  .00000000  00000+0  00000-0 0  9996
2 32442  60.0000  96.0000 0000000   0.0000  96.0000 12.41559219    13
CTC2_L_00436009-02
1 32443U 26990WP  26037.47795139  .00000000  00000+0  00000-0 0  9994
2 32443  60.0000  96.0000 0000000   0.0000 186.0000 12.41559219    14
CTC2_L_00436009-03
1 32444U 24019FA  26037.47795139  .00000000  00000+0  00000-0 0  9995
2 32444  60.0000  96.0000 0000000   0.0000 276.0000 12.41559219    15
CTC2_L_00436009-04
1 32445U 26422IJ  26037.47795139  .00000000  00000+0  00000-0 0  9996
2 32445  60.0000  96.0000 0000000   0.0000   6.0000 12.41559219    17
CTC2_L_00436010-01
1 32446U 22474RQ  26037.47795139  .00000000  00000+0  00000-0 0  9990
2 32446  60.0000 108.0000 0000000   0.0000 108.0000 12.41559219    15
CTC2_L_00436010-02
1 32447U 22240KY  26037.47795139  .00000000  00000+0  00000-0 0  9992
2 32447  60.0000 108.0000 0000000   0.0000 198.0000 12.41559219    15
CTC2_L_00436010-03
1 32448U 23255GS  26037.47795139  .00000000  00000+0  00000-0 0  9990
2 32448  60.0000 108.0000 0000000   0.0000 288.0000 12.41559219    16
CTC2_L_00436010-04
1 32449U 23934LT  26037.47795139  .00000000  00000+0  00000-0 0  9995
2 32449  60.0000 108.0000 0000000   0.0000  18.0000 12.41559219    18
CTC2_L_00436011-01
1 32450U 26981US  26037.47795139  .00000000  00000+0  00000-0 0  9992
2 32450  60.0000 120.0000 0000000   0.0000 120.0000 12.41559219    18
CTC2_L_00436011-02
1 32451U 23788ZR  26037.47795139  .00000000  00000+0  00000-0 0  9995
2 32451  60.0000 120.0000 0000000   0.0000 210.0000 12.41559219    19
CTC2_L_00436011-03
1 32452U 24608LN  26037.47795139  .00000000  00000+0  00000-0 0  9998
2 32452  60.0000 120.0000 0000000   0.0000 300.0000 12.41559219    10
CTC2_L_00436011-04
1 32453U 26535SQ  26037.47795139  .00000000  00000+0  00000-0 0  9990
2 32453  60.0000 120.0000 0000000   0.0000  30.0000 12.41559219    11
CTC2_L_00436012-01
1 32454U 25291UA  26037.47795139  .00000000  00000+0  00000-0 0  9999
2 32454  60.0000 132.0000 0000000   0.0000 132.0000 12.41559219    18
CTC2_L_00436012-02
1 32455U 22303QR  26037.47795139  .00000000  00000+0  00000-0 0  9991
2 32455  60.0000 132.0000 0000000   0.0000 222.0000 12.41559219    19
CTC2_L_00436012-03
1 32456U 23001PP  26037.47795139  .00000000  00000+0  00000-0 0  9998
2 32456  60.0000 132.0000 0000000   0.0000 312.0000 12.41559219    10
CTC2_L_00436012-04
1 32457U 25664YL  26037.47795139  .00000000  00000+0  00000-0 0  9996
2 32457  60.0000 132.0000 0000000   0.0000  42.0000 12.41559219    11
CTC2_L_00436013-01
1 32458U 24425GC  26037.47795139  .00000000  00000+0  00000-0 0  9991
2 32458  60.0000 144.0000 0000000   0.0000 144.0000 12.41559219    18
CTC2_L_00436013-02
1 32459U 23447BE  26037.47795139  .00000000  00000+0  00000-0 0  9995
2 32459  60.0000 144.0000 0000000   0.0000 234.0000 12.41559219    19
CTC2_L_00436013-03
1 32460U 23610TZ  26037.47795139  .00000000  00000+0  00000-0 0  9999
2 32460  60.0000 144.0000 0000000   0.0000 324.0000 12.41559219    11
CTC2_L_00436013-04
1 32461U 26451NQ  26037.47795139  .00000000  00000+0  00000-0 0  9996
2 32461  60.0000 144.0000 0000000   0.0000  54.0000 12.41559219    12
CTC2_L_00436014-01
1 32462U 24143HA  26037.47795139  .00000000  00000+0  00000-0 0  9993
2 32462  60.0000 156.0000 0000000   0.0000 156.0000 12.41559219    19
CTC2_L_00436014-02
1 32463U 24044LU  26037.47795139  .00000000  00000+0  00000-0 0  9994
2 32463  60.0000 156.0000 0000000   0.0000 246.0000 12.41559219    10
CTC2_L_00436014-03
1 32464U 22592BI  26037.47795139  .00000000  00000+0  00000-0 0  9991
2 32464  60.0000 156.0000 0000000   0.0000 336.0000 12.41559219    11
CTC2_L_00436014-04
1 32465U 24939FU  26037.47795139  .00000000  00000+0  00000-0 0  9999
2 32465  60.0000 156.0000 0000000   0.0000  66.0000 12.41559219    12
CTC2_L_00436015-01
1 32466U 23456X   26037.47795139  .00000000  00000+0  00000-0 0  9993
2 32466  60.0000 168.0000 0000000   0.0000 168.0000 12.41559219    19
CTC2_L_00436015-02
1 32467U 26574DQ  26037.47795139  .00000000  00000+0  00000-0 0  9998
2 32467  60.0000 168.0000 0000000   0.0000 258.0000 12.41559219    10
CTC2_L_00436015-03
1 32468U 26978GK  26037.47795139  .00000000  00000+0  00000-0 0  9997
2 32468  60.0000 168.0000 0000000   0.0000 348.0000 12.41559219    11
CTC2_L_00436015-04
1 32469U 22557YG  26037.47795139  .00000000  00000+0  00000-0 0  9997
2 32469  60.0000 168.0000 0000000   0.0000  78.0000 12.41559219    12
CTC2_L_00436016-01
1 32470U 23378YR  26037.47795139  .00000000  00000+0  00000-0 0  9991
2 32470  60.0000 180.0000 0000000   0.0000 180.0000 12.41559219    12
CTC2_L_00436016-02
1 32471U 24333EQ  26037.47795139  .00000000  00000+0  00000-0 0  9994
2 32471  60.0000 180.0000 0000000   0.0000 270.0000 12.41559219    13
